{
  "type": "FeatureCollection",
  "features": [
    {
      "type": "Feature",
      "properties": {
        "norad_id": 28890,
        "name": "BEIJING 1",
        "group": "dmc",
        "lat": 6.496033945620708,
        "lon": 110.79293280579657,
        "alt_km": 692.8487549963102,
        "timestamp": "2025-12-10T05:46:13.464185+00:00",
        "meta_object_name": "BEIJING 1",
        "meta_object_id": "2005-043A",
        "meta_epoch": "2025-12-09T19:53:39.151968",
        "meta_mean_motion": 14.63362885,
        "meta_eccentricity": 0.001514,
        "meta_inclination": 98.2657,
        "meta_ra_of_asc_node": 111.329,
        "meta_arg_of_pericenter": 149.9215,
        "meta_mean_anomaly": 210.2859,
        "meta_ephemeris_type": 0,
        "meta_classification_type": "U",
        "meta_norad_cat_id": 28890,
        "meta_element_set_no": 999,
        "meta_rev_at_epoch": 7295,
        "meta_bstar": 0.00019196,
        "meta_mean_motion_dot": 9.44e-06,
        "meta_mean_motion_ddot": 0,
        "tle_line1": "1 28890U 05043A   25343.82892537  .00000944  00000+0  19196-3 0  9995",
        "tle_line2": "2 28890  98.2657 111.3290 0015140 149.9215 210.2859 14.63362885 72951"
      },
      "geometry": {
        "type": "Point",
        "coordinates": [
          110.79293280579657,
          6.496033945620708
        ]
      }
    },
    {
      "type": "Feature",
      "properties": {
        "norad_id": 33320,
        "name": "HUANJING 1A (HJ-1A)",
        "group": "dmc",
        "lat": -34.164800500383556,
        "lon": 147.40621986308838,
        "alt_km": 639.0098900008888,
        "timestamp": "2025-12-10T05:46:13.464210+00:00",
        "meta_object_name": "HUANJING 1A (HJ-1A)",
        "meta_object_id": "2008-041A",
        "meta_epoch": "2025-12-09T20:42:46.854720",
        "meta_mean_motion": 14.8338019,
        "meta_eccentricity": 0.0020338,
        "meta_inclination": 97.6543,
        "meta_ra_of_asc_node": 332.2815,
        "meta_arg_of_pericenter": 43.5549,
        "meta_mean_anomaly": 316.7267,
        "meta_ephemeris_type": 0,
        "meta_classification_type": "U",
        "meta_norad_cat_id": 33320,
        "meta_element_set_no": 999,
        "meta_rev_at_epoch": 93033,
        "meta_bstar": 0.00036084,
        "meta_mean_motion_dot": 2.919e-05,
        "meta_mean_motion_ddot": 0,
        "tle_line1": "1 33320U 08041A   25343.86304230  .00002919  00000+0  36084-3 0  9991",
        "tle_line2": "2 33320  97.6543 332.2815 0020338  43.5549 316.7267 14.83380190930334"
      },
      "geometry": {
        "type": "Point",
        "coordinates": [
          147.40621986308838,
          -34.164800500383556
        ]
      }
    },
    {
      "type": "Feature",
      "properties": {
        "norad_id": 33321,
        "name": "HUANJING 1B (HJ-1B)",
        "group": "dmc",
        "lat": 77.89803197963212,
        "lon": -62.41073599639042,
        "alt_km": 586.4247867304548,
        "timestamp": "2025-12-10T05:46:13.464224+00:00",
        "meta_object_name": "HUANJING 1B (HJ-1B)",
        "meta_object_id": "2008-041B",
        "meta_epoch": "2025-12-09T21:18:44.877888",
        "meta_mean_motion": 14.82810129,
        "meta_eccentricity": 0.0038267,
        "meta_inclination": 97.64,
        "meta_ra_of_asc_node": 336.0096,
        "meta_arg_of_pericenter": 84.6752,
        "meta_mean_anomaly": 275.8827,
        "meta_ephemeris_type": 0,
        "meta_classification_type": "U",
        "meta_norad_cat_id": 33321,
        "meta_element_set_no": 999,
        "meta_rev_at_epoch": 93035,
        "meta_bstar": 0.00025726,
        "meta_mean_motion_dot": 2.056e-05,
        "meta_mean_motion_ddot": 0,
        "tle_line1": "1 33321U 08041B   25343.88801942  .00002056  00000+0  25726-3 0  9999",
        "tle_line2": "2 33321  97.6400 336.0096 0038267  84.6752 275.8827 14.82810129930350"
      },
      "geometry": {
        "type": "Point",
        "coordinates": [
          -62.41073599639042,
          77.89803197963212
        ]
      }
    },
    {
      "type": "Feature",
      "properties": {
        "norad_id": 33446,
        "name": "YAOGAN-4",
        "group": "dmc",
        "lat": -6.549740505706791,
        "lon": -84.72025001401444,
        "alt_km": 615.7356159034325,
        "timestamp": "2025-12-10T05:46:13.464236+00:00",
        "meta_object_name": "YAOGAN-4",
        "meta_object_id": "2008-061A",
        "meta_epoch": "2025-12-09T18:27:44.192736",
        "meta_mean_motion": 14.82669066,
        "meta_eccentricity": 0.0013834,
        "meta_inclination": 97.918,
        "meta_ra_of_asc_node": 273.8977,
        "meta_arg_of_pericenter": 333.4194,
        "meta_mean_anomaly": 26.6309,
        "meta_ephemeris_type": 0,
        "meta_classification_type": "U",
        "meta_norad_cat_id": 33446,
        "meta_element_set_no": 999,
        "meta_rev_at_epoch": 91759,
        "meta_bstar": 0.000361,
        "meta_mean_motion_dot": 2.862e-05,
        "meta_mean_motion_ddot": 0,
        "tle_line1": "1 33446U 08061A   25343.76926149  .00002862  00000+0  36100-3 0  9996",
        "tle_line2": "2 33446  97.9180 273.8977 0013834 333.4194  26.6309 14.82669066917590"
      },
      "geometry": {
        "type": "Point",
        "coordinates": [
          -84.72025001401444,
          -6.549740505706791
        ]
      }
    },
    {
      "type": "Feature",
      "properties": {
        "norad_id": 35681,
        "name": "DEIMOS-1",
        "group": "dmc",
        "lat": -12.764249387401481,
        "lon": -36.80018929567421,
        "alt_km": 650.5001929509772,
        "timestamp": "2025-12-10T05:46:13.464247+00:00",
        "meta_object_name": "DEIMOS-1",
        "meta_object_id": "2009-041A",
        "meta_epoch": "2025-12-09T20:45:30.841056",
        "meta_mean_motion": 14.74944806,
        "meta_eccentricity": 0.0002725,
        "meta_inclination": 97.7146,
        "meta_ra_of_asc_node": 144.6017,
        "meta_arg_of_pericenter": 83.9386,
        "meta_mean_anomaly": 276.2134,
        "meta_ephemeris_type": 0,
        "meta_classification_type": "U",
        "meta_norad_cat_id": 35681,
        "meta_element_set_no": 999,
        "meta_rev_at_epoch": 87897,
        "meta_bstar": 0.0001367,
        "meta_mean_motion_dot": 8.71e-06,
        "meta_mean_motion_ddot": 0,
        "tle_line1": "1 35681U 09041A   25343.86494029  .00000871  00000+0  13670-3 0  9991",
        "tle_line2": "2 35681  97.7146 144.6017 0002725  83.9386 276.2134 14.74944806878976"
      },
      "geometry": {
        "type": "Point",
        "coordinates": [
          -36.80018929567421,
          -12.764249387401481
        ]
      }
    },
    {
      "type": "Feature",
      "properties": {
        "norad_id": 35683,
        "name": "UK-DMC 2",
        "group": "dmc",
        "lat": -21.68388741949949,
        "lon": -63.93362989547076,
        "alt_km": 648.8370713407985,
        "timestamp": "2025-12-10T05:46:13.464258+00:00",
        "meta_object_name": "UK-DMC 2",
        "meta_object_id": "2009-041C",
        "meta_epoch": "2025-12-09T20:43:18.261984",
        "meta_mean_motion": 14.75610996,
        "meta_eccentricity": 0.0001395,
        "meta_inclination": 97.8564,
        "meta_ra_of_asc_node": 118.8474,
        "meta_arg_of_pericenter": 96.7575,
        "meta_mean_anomaly": 263.3793,
        "meta_ephemeris_type": 0,
        "meta_classification_type": "U",
        "meta_norad_cat_id": 35683,
        "meta_element_set_no": 999,
        "meta_rev_at_epoch": 87864,
        "meta_bstar": 0.00020814,
        "meta_mean_motion_dot": 1.371e-05,
        "meta_mean_motion_ddot": 0,
        "tle_line1": "1 35683U 09041C   25343.86340581  .00001371  00000+0  20814-3 0  9990",
        "tle_line2": "2 35683  97.8564 118.8474 0001395  96.7575 263.3793 14.75610996878640"
      },
      "geometry": {
        "type": "Point",
        "coordinates": [
          -63.93362989547076,
          -21.68388741949949
        ]
      }
    },
    {
      "type": "Feature",
      "properties": {
        "norad_id": 40715,
        "name": "DMC3-FM1",
        "group": "dmc",
        "lat": 17.169200221304887,
        "lon": 33.90965440733729,
        "alt_km": 616.0936080579386,
        "timestamp": "2025-12-10T05:46:13.464268+00:00",
        "meta_object_name": "DMC3-FM1",
        "meta_object_id": "2015-032A",
        "meta_epoch": "2025-12-09T20:57:26.514720",
        "meta_mean_motion": 14.85434988,
        "meta_eccentricity": 0.0004837,
        "meta_inclination": 97.6689,
        "meta_ra_of_asc_node": 211.17,
        "meta_arg_of_pericenter": 333.1259,
        "meta_mean_anomaly": 26.9706,
        "meta_ephemeris_type": 0,
        "meta_classification_type": "U",
        "meta_norad_cat_id": 40715,
        "meta_element_set_no": 999,
        "meta_rev_at_epoch": 56180,
        "meta_bstar": 0.00022052,
        "meta_mean_motion_dot": 1.849e-05,
        "meta_mean_motion_ddot": 0,
        "tle_line1": "1 40715U 15032A   25343.87322355  .00001849  00000+0  22052-3 0  9995",
        "tle_line2": "2 40715  97.6689 211.1700 0004837 333.1259  26.9706 14.85434988561808"
      },
      "geometry": {
        "type": "Point",
        "coordinates": [
          33.90965440733729,
          17.169200221304887
        ]
      }
    },
    {
      "type": "Feature",
      "properties": {
        "norad_id": 40716,
        "name": "DMC3-FM2",
        "group": "dmc",
        "lat": 41.833857764252464,
        "lon": -153.96723201853902,
        "alt_km": 607.29441411888,
        "timestamp": "2025-12-10T05:46:13.464278+00:00",
        "meta_object_name": "DMC3-FM2",
        "meta_object_id": "2015-032B",
        "meta_epoch": "2025-12-09T21:29:50.450784",
        "meta_mean_motion": 14.85433757,
        "meta_eccentricity": 0.0005561,
        "meta_inclination": 97.6747,
        "meta_ra_of_asc_node": 212.6336,
        "meta_arg_of_pericenter": 337.384,
        "meta_mean_anomaly": 22.713,
        "meta_ephemeris_type": 0,
        "meta_classification_type": "U",
        "meta_norad_cat_id": 40716,
        "meta_element_set_no": 999,
        "meta_rev_at_epoch": 56180,
        "meta_bstar": 0.00011614,
        "meta_mean_motion_dot": 9.49e-06,
        "meta_mean_motion_ddot": 0,
        "tle_line1": "1 40716U 15032B   25343.89572281  .00000949  00000+0  11614-3 0  9995",
        "tle_line2": "2 40716  97.6747 212.6336 0005561 337.3840  22.7130 14.85433757561800"
      },
      "geometry": {
        "type": "Point",
        "coordinates": [
          -153.96723201853902,
          41.833857764252464
        ]
      }
    },
    {
      "type": "Feature",
      "properties": {
        "norad_id": 40717,
        "name": "DMC3-FM3",
        "group": "dmc",
        "lat": -71.59977136239898,
        "lon": -121.47167092387126,
        "alt_km": 617.3796603745004,
        "timestamp": "2025-12-10T05:46:13.464288+00:00",
        "meta_object_name": "DMC3-FM3",
        "meta_object_id": "2015-032C",
        "meta_epoch": "2025-12-09T20:23:57.026976",
        "meta_mean_motion": 14.85422032,
        "meta_eccentricity": 0.000495,
        "meta_inclination": 97.68,
        "meta_ra_of_asc_node": 214.2203,
        "meta_arg_of_pericenter": 338.9467,
        "meta_mean_anomaly": 21.1544,
        "meta_ephemeris_type": 0,
        "meta_classification_type": "U",
        "meta_norad_cat_id": 40717,
        "meta_element_set_no": 999,
        "meta_rev_at_epoch": 56180,
        "meta_bstar": 8.0485e-05,
        "meta_mean_motion_dot": 6.42e-06,
        "meta_mean_motion_ddot": 0,
        "tle_line1": "1 40717U 15032C   25343.84996559  .00000642  00000+0  80485-4 0  9992",
        "tle_line2": "2 40717  97.6800 214.2203 0004950 338.9467  21.1544 14.85422032561801"
      },
      "geometry": {
        "type": "Point",
        "coordinates": [
          -121.47167092387126,
          -71.59977136239898
        ]
      }
    }
  ]
}